STARLINK-3525           
1 51733U 22016V   22069.58334491 -.00083032  00000+0 -59156-3 0  9992
2 51733  53.2175  55.5043 0001478  62.7565 217.2754 15.73257651  3369
STARLINK-3450           
1 51734U 22016W   22069.58334491 -.00016266  00000+0 -11172-3 0  9994
2 51734  53.2181  55.4989 0001119  52.2529 230.9612 15.73197346  3360
STARLINK-3517           
1 51735U 22016X   22069.58334491  .00018928  00000+0  13902-3 0  9993
2 51735  53.2177  55.5009 0001082  70.7952 211.1549 15.73192371  3367
STARLINK-3447           
1 51736U 22016Y   22069.58334491 -.00017436  00000+0 -12011-3 0  9999
2 51736  53.2180  55.4966 0001129  52.1830 232.2601 15.73193583  3363
STARLINK-3509           
1 51737U 22016Z   22069.58334491  .00014252  00000+0  10577-3 0  9996
2 51737  53.2177  55.4995 0000920  63.1205 219.4281 15.73203233  3363
STARLINK-3515           
1 51738U 22016AA  22069.58334491  .00016771  00000+0  12362-3 0  9999
2 51738  53.2182  55.4943 0000961  53.0062 232.7757 15.73209809  3368
STARLINK-3516           
1 51739U 22016AB  22069.58334491 -.00094352  00000+0 -67298-3 0  9991
2 51739  53.2178  55.4971 0001067  49.2892 234.6312 15.73284429  3360
STARLINK-3500           
1 51740U 22016AC  22069.58334491  .00014102  00000+0  10482-3 0  9999
2 51740  53.2181  55.4902 0001124  63.4342 224.2922 15.73178449  3368
STARLINK-3520           
1 51741U 22016AD  22069.58334491 -.00011999  00000+0 -81209-4 0  9999
2 51741  53.2178  55.4946 0001098  64.0595 221.0925 15.73198692  3360
STARLINK-3521           
1 51742U 22016AE  22069.58334491  .00019688  00000+0  14444-3 0  9997
2 51742  53.2182  55.4891 0001041  56.9377 231.4475 15.73187920  3368
STARLINK-3512           
1 51743U 22016AF  22069.58334491  .00016349  00000+0  12061-3 0  9992
2 51743  53.2178  55.4922 0001238  72.9432 213.4727 15.73212851  3369
STARLINK-3452           
1 51744U 22016AG  22069.58334491  .00016103  00000+0  11900-3 0  9992
2 51744  53.2183  55.4868 0001225  78.5609 211.0521 15.73186879  3365
STARLINK-3449           
1 51745U 22016AH  22069.58334491 -.00005489  00000+0 -34734-4 0  9991
2 51745  53.2179  55.4912 0001080  57.2196 229.8466 15.73191614  3363
STARLINK-3502           
1 51746U 22016AJ  22069.58334491 -.00017757  00000+0 -12242-3 0  9992
2 51746  53.2182  55.4843 0001195  44.0212 246.8647 15.73190120  3362
STARLINK-3446           
1 51747U 22016AK  22069.58334491 -.00014720  00000+0 -10070-3 0  9997
2 51747  53.2180  55.4874 0000978  68.8404 220.1504 15.73188416  3362
STARLINK-3501           
1 51748U 22016AL  22069.58334491  .00012832  00000+0  95721-4 0  9995
2 51748  53.2183  55.4819 0001134  42.4748 249.6517 15.73195220  3360
STARLINK-3451           
1 51749U 22016AM  22069.58334491  .00012625  00000+0  94176-4 0  9999
2 51749  53.2179  55.4848 0001337  43.6241 246.5979 15.73214705  3362
STARLINK-3505           
1 51750U 22016AN  22069.58334491  .00017842  00000+0  13124-3 0  9990
2 51750  53.2184  55.4796 0000862  56.0780 237.3324 15.73205699  3364
STARLINK-3506           
1 51751U 22016AP  22069.58334491  .00009012  00000+0  68523-4 0  9995
2 51751  53.2180  55.4824 0001362  57.7691 233.7174 15.73213676  3365
STARLINK-3511           
1 51752U 22016AQ  22069.58334491 -.00011668  00000+0 -78840-4 0  9991
2 51752  53.2185  55.4786 0001122  46.6246 247.4450 15.73198492  3362
STARLINK-3507           
1 51753U 22016AR  22069.58334491 -.00081695  00000+0 -58197-3 0  9991
2 51753  53.2181  55.4800 0001447  54.7252 238.0527 15.73253798  3365
STARLINK-3457           
1 51754U 22016AS  22069.58334491 -.00006170  00000+0 -39510-4 0  9996
2 51754  53.2184  55.4756 0001238  50.5966 244.7475 15.73237926  3364
STARLINK-3460           
1 51755U 22016AT  22069.58334491 -.00024857  00000+0 -17315-3 0  9997
2 51755  53.2181  55.4763 0001276  68.4797 226.2322 15.73208012  3362
STARLINK-3513           
1 51756U 22016AU  22069.58334491  .00016206  00000+0  11961-3 0  9996
2 51756  53.2185  55.4750 0001318  53.0933 242.8703 15.73210450  3368
STARLINK-3459           
1 51757U 22016AV  22069.58334491 -.00011268  00000+0 -75991-4 0  9996
2 51757  53.2182  55.4728 0001219  56.7236 239.8997 15.73196501  3368
STARLINK-3458           
1 51758U 22016AW  22069.58334491 -.00017520  00000+0 -12069-3 0  9990
2 51758  53.2185  55.4722 0001278  38.6370 258.6318 15.73196704  3360
STARLINK-3456           
1 51759U 22016AX  22069.58334491  .00015743  00000+0  11644-3 0  9992
2 51759  53.2181  55.4698 0001061  40.4535 257.4915 15.73187097  3368
FALCON 9 DEB            
1 51760U 22016AY  22069.53397357  .00120552  00000+0  55417-3 0  9990
2 51760  53.2309  55.0376 0005785 323.6297  36.4333 15.82774449  2832
FALCON 9 DEB            
1 51761U 22016AZ  22069.59233302  .00138040  00000+0  61331-3 0  9999
2 51761  53.2284  54.6851 0004600 295.2485  64.8062 15.83448273  2845
FALCON 9 DEB            
1 51762U 22016BA  22069.51824996  .00131694  00000+0  55616-3 0  9994
2 51762  53.2253  54.9212 0009234 299.2797  60.7305 15.84490717  2839
FALCON 9 DEB            
1 51763U 22016BB  22069.57860268  .00125088  00000+0  52525-3 0  9999
2 51763  53.2238  54.5819 0008891 281.3561  78.6466 15.84636762  2840
STARLINK-3622           
1 51768U 22017A   22069.58334491  .00001984  00000+0  18553-4 0  9992
2 51768  53.2198  79.5731 0001535  34.1381 184.4834 15.73195788  2540
STARLINK-3621           
1 51769U 22017B   22069.58334491  .00000863  00000+0  10571-4 0  9990
2 51769  53.2194  79.5699 0001496  42.0449 177.8641 15.73194034  2533
STARLINK-3612           
1 51770U 22017C   22069.58334491 -.00077009  00000+0 -54791-3 0  9991
2 51770  53.2199  79.5721 0001548  52.9010 166.3401 15.73258413  2537
STARLINK-3614           
1 51771U 22017D   22069.58334491  .00003374  00000+0  28446-4 0  9993
2 51771  53.2196  79.5689 0001592  40.4449 180.0874 15.73201710  2530
STARLINK-3623           
1 51772U 22017E   22069.58334491 -.00070950  00000+0 -50397-3 0  9999
2 51772  53.2199  79.5655 0001553  43.6375 178.7950 15.73263913  2539
STARLINK-3624           
1 51773U 22017F   22069.58334491  .00018895  00000+0  13863-3 0  9995
2 51773  53.2196  79.5676 0001395  43.6629 177.4942 15.73219328  2534
STARLINK-3629           
1 51774U 22017G   22069.58334491  .00006833  00000+0  53053-4 0  9991
2 51774  53.2199  79.5631 0001610  54.0847 169.5960 15.73205940  2545
STARLINK-3620           
1 51775U 22017H   22069.58334491  .00035291  00000+0  25498-3 0  9993
2 51775  53.2196  79.5662 0001226  45.4739 176.3169 15.73184107  2542
STARLINK-3608           
1 51776U 22017J   22069.58334491  .00038274  00000+0  27610-3 0  9996
2 51776  53.2190  79.5620 0001693  31.6517 192.6886 15.73180800  2543
STARLINK-3625           
1 51777U 22017K   22069.58334491  .00020897  00000+0  15296-3 0  9996
2 51777  53.2197  79.5638 0001561  48.0956 174.9659 15.73196353  2544
STARLINK-3615           
1 51778U 22017L   22069.58334491  .00485095  00000+0  33070-2 0  9991
2 51778  53.2178  79.2167 0001142  52.2624 344.3488 15.72899281  2533
STARLINK-3611           
1 51779U 22017M   22069.58334491 -.00021604  00000+0 -14961-3 0  9995
2 51779  53.2198  79.5601 0001443  41.6529 183.3101 15.73245644  2545
STARLINK-3617           
1 51780U 22017N   22069.58334491  .00005228  00000+0  41656-4 0  9991
2 51780  53.2182  79.5555 0001269  45.5184 182.0452 15.73191712  2545
STARLINK-3580           
1 51781U 22017P   22069.58334491  .00037530  00000+0  27063-3 0  9998
2 51781  53.2199  79.5590 0001470  50.0037 175.5852 15.73199283  2547
STARLINK-3616           
1 51782U 22017Q   22069.58334491  .00017040  00000+0  12552-3 0  9990
2 51782  53.2182  79.5518 0001380  48.3224 181.1211 15.73211013  2535
STARLINK-3628           
1 51783U 22017R   22069.58334491  .00034517  00000+0  24920-3 0  9991
2 51783  53.2200  79.5566 0001492  52.3546 174.5213 15.73213503  2541
STARLINK-3632           
1 51784U 22017S   22069.58334491  .00008159  00000+0  62491-4 0  9991
2 51784  53.2182  79.5505 0001581  42.6361 187.4804 15.73201821  2538
STARLINK-3646           
1 51785U 22017T   22069.58334491  .00039690  00000+0  28576-3 0  9991
2 51785  53.2200  79.5538 0001509  40.3173 187.8597 15.73209339  2537
STARLINK-3638           
1 51786U 22017U   22069.58334491  .00011707  00000+0  87753-4 0  9994
2 51786  53.2185  79.5482 0001273  40.4534 190.9579 15.73188538  2530
STARLINK-3619           
1 51787U 22017V   22069.58334491 -.00017092  00000+0 -11736-3 0  9997
2 51787  53.2178  79.5526 0001724  41.8573 186.9543 15.73246790  2532
STARLINK-3641           
1 51788U 22017W   22069.58334491  .00032940  00000+0  23840-3 0  9994
2 51788  53.2184  79.5441 0001431  46.3189 187.0067 15.73179935  2544
STARLINK-3639           
1 51789U 22017X   22069.58334491  .00039475  00000+0  28449-3 0  9995
2 51789  53.2181  79.5489 0001241  39.8677 190.8813 15.73188941  2539
STARLINK-3631           
1 51790U 22017Y   22069.58334491 -.00034809  00000+0 -24397-3 0  9993
2 51790  53.2183  79.5428 0001462  53.6459 180.1790 15.73261566  2534
STARLINK-3602           
1 51791U 22017Z   22069.58334491  .00036896  00000+0  26614-3 0  9994
2 51791  53.2179  79.5462 0001453  41.9807 190.0833 15.73200555  2534
STARLINK-3626           
1 51792U 22017AA  22069.58334491  .00038670  00000+0  27850-3 0  9990
2 51792  53.2188  79.5404 0001595  46.5682 188.6340 15.73214677  2547
STARLINK-3633           
1 51793U 22017AB  22069.58334491  .00035405  00000+0  25570-3 0  9991
2 51793  53.2179  79.5449 0001400  44.3294 188.3677 15.73192390  2533
STARLINK-3573           
1 51794U 22017AC  22069.83334491  .00071156  00000+0  50737-3 0  9996
2 51794  53.2187  78.2991 0001286  68.2064 144.9962 15.73188657  3305
STARLINK-3586           
1 51795U 22017AD  22069.58334491  .00038727  00000+0  27909-3 0  9991
2 51795  53.2179  79.5387 0001370  50.9651 184.8976 15.73198776  2539
